start=new Date('2022-06-26T00:00:00.000Z').valueOf();
sats=[{"OBJECT_TYPE":"PAYLOAD","TLE_LINE2":"2 46794  53.0552 275.4012 0001534  51.0345 309.0780 15.06392878 92753","ELEMENT_SET_NO":"999","MEAN_MOTION":"15.06392878","CENTER_NAME":"EARTH","DECAY_DATE":null,"FILE":"3502557","LAUNCH_DATE":"2020-10-24","PERIOD":"95.593","TIME_SYSTEM":"UTC","RCS_SIZE":"LARGE","NORAD_CAT_ID":"46794","EPOCH":"2022-06-25T16:59:02.944608","BSTAR":"-0.00001296700000","EPHEMERIS_TYPE":"0","RA_OF_ASC_NODE":"275.4012","PERIAPSIS":"546.173","ARG_OF_PERICENTER":"51.0345","REV_AT_EPOCH":"9275","OBJECT_NAME":"STARLINK-1942","CLASSIFICATION_TYPE":"U","APOAPSIS":"548.298","MEAN_ANOMALY":"309.0780","ECCENTRICITY":"0.00015340","GP_ID":"206855096","MEAN_MOTION_DDOT":"0.0000000000000","MEAN_MOTION_DOT":"-0.00000475","INCLINATION":"53.0552","SITE":"AFETR","REF_FRAME":"TEME","OBJECT_ID":"2020-074BH","SEMIMAJOR_AXIS":"6925.370","COUNTRY_CODE":"US","MEAN_ELEMENT_THEORY":"SGP4","TLE_LINE1":"1 46794U 20074BH  22176.70767297 -.00000475  00000-0 -12967-4 0  9993"},{"GP_ID":"206853845","ECCENTRICITY":"0.00016160","MEAN_MOTION_DDOT":"0.0000000000000","APOAPSIS":"548.349","MEAN_ANOMALY":"308.4864","CLASSIFICATION_TYPE":"U","OBJECT_NAME":"STARLINK-1944","OBJECT_ID":"2020-074BK","TLE_LINE1":"1 46796U 20074BK  22176.61644528 -.00000950  00000-0 -44914-4 0  9991","MEAN_ELEMENT_THEORY":"SGP4","SEMIMAJOR_AXIS":"6925.365","COUNTRY_CODE":"US","REF_FRAME":"TEME","INCLINATION":"53.0543","SITE":"AFETR","MEAN_MOTION_DOT":"-0.00000950","FILE":"3502557","DECAY_DATE":null,"ELEMENT_SET_NO":"999","CENTER_NAME":"EARTH","MEAN_MOTION":"15.06394737","OBJECT_TYPE":"PAYLOAD","TLE_LINE2":"2 46796  53.0543 265.8145 0001616  51.6270 308.4864 15.06394737 92874","REV_AT_EPOCH":"9287","PERIAPSIS":"546.111","ARG_OF_PERICENTER":"51.6270","BSTAR":"-0.00004491400000","EPOCH":"2022-06-25T14:47:40.872192","NORAD_CAT_ID":"46796","EPHEMERIS_TYPE":"0","RA_OF_ASC_NODE":"265.8145","PERIOD":"95.592","LAUNCH_DATE":"2020-10-24","TIME_SYSTEM":"UTC","RCS_SIZE":"LARGE"},{"COUNTRY_CODE":"US","SEMIMAJOR_AXIS":"6925.310","MEAN_ELEMENT_THEORY":"SGP4","TLE_LINE1":"1 46798U 20074BM  22176.78091072  .00004781  00000-0  33952-3 0  9994","OBJECT_ID":"2020-074BM","REF_FRAME":"TEME","SITE":"AFETR","INCLINATION":"53.0551","MEAN_MOTION_DOT":"0.00004781","MEAN_MOTION_DDOT":"0.0000000000000","ECCENTRICITY":"0.00012400","GP_ID":"206854095","MEAN_ANOMALY":"288.4243","APOAPSIS":"548.034","CLASSIFICATION_TYPE":"U","OBJECT_NAME":"STARLINK-1948","REV_AT_EPOCH":"9255","PERIAPSIS":"546.317","ARG_OF_PERICENTER":"71.6881","EPHEMERIS_TYPE":"0","RA_OF_ASC_NODE":"290.0745","NORAD_CAT_ID":"46798","EPOCH":"2022-06-25T18:44:30.686208","BSTAR":"0.00033952000000","RCS_SIZE":"LARGE","PERIOD":"95.591","LAUNCH_DATE":"2020-10-24","TIME_SYSTEM":"UTC","FILE":"3502557","DECAY_DATE":null,"MEAN_MOTION":"15.06412425","CENTER_NAME":"EARTH","ELEMENT_SET_NO":"999","TLE_LINE2":"2 46798  53.0551 290.0745 0001240  71.6881 288.4243 15.06412425 92552","OBJECT_TYPE":"PAYLOAD"},{"FILE":"3502557","DECAY_DATE":null,"MEAN_MOTION":"15.06388030","CENTER_NAME":"EARTH","ELEMENT_SET_NO":"999","TLE_LINE2":"2 47122  53.0539 255.8523 0001175  95.4723 264.6400 15.06388030 87895","OBJECT_TYPE":"PAYLOAD","PERIAPSIS":"546.437","REV_AT_EPOCH":"8789","ARG_OF_PERICENTER":"95.4723","RA_OF_ASC_NODE":"255.8523","EPHEMERIS_TYPE":"0","NORAD_CAT_ID":"47122","EPOCH":"2022-06-25T14:27:47.749536","BSTAR":"0.00007892300000","RCS_SIZE":"LARGE","LAUNCH_DATE":"2020-11-25","PERIOD":"95.593","TIME_SYSTEM":"UTC","MEAN_MOTION_DDOT":"0.0000000000000","ECCENTRICITY":"0.00011750","GP_ID":"206854132","MEAN_ANOMALY":"264.6400","APOAPSIS":"548.064","CLASSIFICATION_TYPE":"U","OBJECT_NAME":"STARLINK-1777","COUNTRY_CODE":"US","SEMIMAJOR_AXIS":"6925.385","TLE_LINE1":"1 47122U 20088A   22176.60263599  .00000894  00000-0  78923-4 0  9996","MEAN_ELEMENT_THEORY":"SGP4","OBJECT_ID":"2020-088A","REF_FRAME":"TEME","SITE":"AFETR","INCLINATION":"53.0539","MEAN_MOTION_DOT":"0.00000894"},{"RCS_SIZE":"LARGE","PERIOD":"95.592","LAUNCH_DATE":"2020-11-25","TIME_SYSTEM":"UTC","REV_AT_EPOCH":"8787","PERIAPSIS":"546.298","ARG_OF_PERICENTER":"85.4687","EPHEMERIS_TYPE":"0","RA_OF_ASC_NODE":"259.4462","BSTAR":"0.00011881000000","NORAD_CAT_ID":"47124","EPOCH":"2022-06-25T22:06:13.321728","CENTER_NAME":"EARTH","MEAN_MOTION":"15.06404011","ELEMENT_SET_NO":"999","TLE_LINE2":"2 47124  53.0549 259.4462 0001304  85.4687 274.6451 15.06404011 87875","OBJECT_TYPE":"PAYLOAD","FILE":"3502557","DECAY_DATE":null,"SITE":"AFETR","INCLINATION":"53.0549","MEAN_MOTION_DOT":"0.00001489","MEAN_ELEMENT_THEORY":"SGP4","TLE_LINE1":"1 47124U 20088C   22176.92098752  .00001489  00000-0  11881-3 0  9990","COUNTRY_CODE":"US","SEMIMAJOR_AXIS":"6925.336","OBJECT_ID":"2020-088C","REF_FRAME":"TEME","CLASSIFICATION_TYPE":"U","OBJECT_NAME":"STARLINK-1785","MEAN_MOTION_DDOT":"0.0000000000000","GP_ID":"206855382","ECCENTRICITY":"0.00013040","MEAN_ANOMALY":"274.6451","APOAPSIS":"548.104"},{"MEAN_ANOMALY":"293.5276","APOAPSIS":"548.360","MEAN_MOTION_DDOT":"0.0000000000000","GP_ID":"206855632","ECCENTRICITY":"0.00016470","OBJECT_NAME":"STARLINK-1812","CLASSIFICATION_TYPE":"U","REF_FRAME":"TEME","MEAN_ELEMENT_THEORY":"SGP4","TLE_LINE1":"1 47126U 20088E   22176.62842719  .00000871  00000-0  77377-4 0  9996","COUNTRY_CODE":"US","SEMIMAJOR_AXIS":"6925.354","OBJECT_ID":"2020-088E","MEAN_MOTION_DOT":"0.00000871","SITE":"AFETR","INCLINATION":"53.0547","DECAY_DATE":null,"FILE":"3502557","TLE_LINE2":"2 47126  53.0547 255.7382 0001647  66.5886 293.5276 15.06398140 87900","OBJECT_TYPE":"PAYLOAD","CENTER_NAME":"EARTH","MEAN_MOTION":"15.06398140","ELEMENT_SET_NO":"999","RA_OF_ASC_NODE":"255.7382","EPHEMERIS_TYPE":"0","BSTAR":"0.00007737700000","EPOCH":"2022-06-25T15:04:56.109216","NORAD_CAT_ID":"47126","PERIAPSIS":"546.079","REV_AT_EPOCH":"8790","ARG_OF_PERICENTER":"66.5886","RCS_SIZE":"LARGE","LAUNCH_DATE":"2020-11-25","PERIOD":"95.592","TIME_SYSTEM":"UTC"},{"NORAD_CAT_ID":"47128","EPOCH":"2022-06-25T20:26:02.300064","BSTAR":"0.00014771000000","RA_OF_ASC_NODE":"234.7473","EPHEMERIS_TYPE":"0","PERIAPSIS":"546.219","REV_AT_EPOCH":"8821","ARG_OF_PERICENTER":"64.1942","LAUNCH_DATE":"2020-11-25","TIME_SYSTEM":"UTC","PERIOD":"95.592","RCS_SIZE":"LARGE","DECAY_DATE":null,"FILE":"3502557","OBJECT_TYPE":"PAYLOAD","TLE_LINE2":"2 47128  53.0528 234.7473 0001408  64.1942 295.9192 15.06406236 88215","ELEMENT_SET_NO":"999","MEAN_MOTION":"15.06406236","CENTER_NAME":"EARTH","REF_FRAME":"TEME","OBJECT_ID":"2020-088G","COUNTRY_CODE":"US","SEMIMAJOR_AXIS":"6925.329","MEAN_ELEMENT_THEORY":"SGP4","TLE_LINE1":"1 47128U 20088G   22176.85141551  .00001920  00000-0  14771-3 0  9993","MEAN_MOTION_DOT":"0.00001920","INCLINATION":"53.0528","SITE":"AFETR","APOAPSIS":"548.170","MEAN_ANOMALY":"295.9192","ECCENTRICITY":"0.00014080","GP_ID":"206854382","MEAN_MOTION_DDOT":"0.0000000000000","OBJECT_NAME":"STARLINK-1837","CLASSIFICATION_TYPE":"U"},{"TLE_LINE2":"2 47129  53.0544 244.6181 0001578  49.9929 310.1198 15.06405535 88086","OBJECT_TYPE":"PAYLOAD","CENTER_NAME":"EARTH","MEAN_MOTION":"15.06405535","ELEMENT_SET_NO":"999","DECAY_DATE":null,"FILE":"3502557","RCS_SIZE":"LARGE","LAUNCH_DATE":"2020-11-25","PERIOD":"95.592","TIME_SYSTEM":"UTC","EPHEMERIS_TYPE":"0","RA_OF_ASC_NODE":"244.6181","BSTAR":"0.00013127000000","EPOCH":"2022-06-25T21:07:10.488000","NORAD_CAT_ID":"47129","ARG_OF_PERICENTER":"49.9929","PERIAPSIS":"546.104","REV_AT_EPOCH":"8808","OBJECT_NAME":"STARLINK-1838","CLASSIFICATION_TYPE":"U","MEAN_ANOMALY":"310.1198","APOAPSIS":"548.289","MEAN_MOTION_DDOT":"0.0000000000000","GP_ID":"206854632","ECCENTRICITY":"0.00015780","MEAN_MOTION_DOT":"0.00001675","SITE":"AFETR","INCLINATION":"53.0544","REF_FRAME":"TEME","TLE_LINE1":"1 47129U 20088H   22176.87998250  .00001675  00000-0  13127-3 0  9993","MEAN_ELEMENT_THEORY":"SGP4","SEMIMAJOR_AXIS":"6925.332","COUNTRY_CODE":"US","OBJECT_ID":"2020-088H"},{"LAUNCH_DATE":"2020-11-25","PERIOD":"95.592","TIME_SYSTEM":"UTC","RCS_SIZE":"LARGE","PERIAPSIS":"545.991","REV_AT_EPOCH":"8776","ARG_OF_PERICENTER":"57.0899","BSTAR":"0.00005037400000","NORAD_CAT_ID":"47130","EPOCH":"2022-06-25T15:56:40.693632","EPHEMERIS_TYPE":"0","RA_OF_ASC_NODE":"265.5781","ELEMENT_SET_NO":"999","CENTER_NAME":"EARTH","MEAN_MOTION":"15.06403208","OBJECT_TYPE":"PAYLOAD","TLE_LINE2":"2 47130  53.0558 265.5781 0001751  57.0899 303.0258 15.06403208 87767","FILE":"3502557","DECAY_DATE":null,"INCLINATION":"53.0558","SITE":"AFETR","MEAN_MOTION_DOT":"0.00000469","OBJECT_ID":"2020-088J","TLE_LINE1":"1 47130U 20088J   22176.66435988  .00000469  00000-0  50374-4 0  9992","MEAN_ELEMENT_THEORY":"SGP4","SEMIMAJOR_AXIS":"6925.339","COUNTRY_CODE":"US","REF_FRAME":"TEME","CLASSIFICATION_TYPE":"U","OBJECT_NAME":"STARLINK-1839","GP_ID":"206854884","ECCENTRICITY":"0.00017510","MEAN_MOTION_DDOT":"0.0000000000000","APOAPSIS":"548.416","MEAN_ANOMALY":"303.0258"},{"MEAN_MOTION_DOT":"-0.00000176","INCLINATION":"53.0560","SITE":"AFETR","REF_FRAME":"TEME","OBJECT_ID":"2020-088M","TLE_LINE1":"1 47133U 20088M   22176.60723293 -.00000176  00000-0  70810-5 0  9992","MEAN_ELEMENT_THEORY":"SGP4","SEMIMAJOR_AXIS":"6925.368","COUNTRY_CODE":"US","OBJECT_NAME":"STARLINK-1843","CLASSIFICATION_TYPE":"U","APOAPSIS":"548.114","MEAN_ANOMALY":"277.3212","GP_ID":"206855134","ECCENTRICITY":"0.00012720","MEAN_MOTION_DDOT":"0.0000000000000","PERIOD":"95.593","LAUNCH_DATE":"2020-11-25","TIME_SYSTEM":"UTC","RCS_SIZE":"LARGE","BSTAR":"0.00000708100000","EPOCH":"2022-06-25T14:34:24.925152","NORAD_CAT_ID":"47133","EPHEMERIS_TYPE":"0","RA_OF_ASC_NODE":"245.8403","PERIAPSIS":"546.352","ARG_OF_PERICENTER":"82.7922","REV_AT_EPOCH":"8803","OBJECT_TYPE":"PAYLOAD","TLE_LINE2":"2 47133  53.0560 245.8403 0001272  82.7922 277.3212 15.06393609 88032","ELEMENT_SET_NO":"999","CENTER_NAME":"EARTH","MEAN_MOTION":"15.06393609","DECAY_DATE":null,"FILE":"3502557"}];
